[Satellite]
VERSION=1.1
NAME=SL-4 R/B
NICKNAME=SL-4 R/B
TLE1=1 54382U 22163B   22342.59115126  .00105057  65145-5  54422-3 0  9993
TLE2=2 54382  67.1332 351.5588 0459261  85.1665 280.1739 15.03959739  1168
STATUS=0
